NORAD_CAT_ID,OBJECT_NAME,OBJECT_TYPE,EPOCH,MEAN_MOTION,ECCENTRICITY,INCLINATION,RA_OF_ASC_NODE,ARG_OF_PERICENTER,MEAN_ANOMALY,BSTAR,MEAN_MOTION_DOT,MEAN_MOTION_DDOT,TLE_LINE0,TLE_LINE1,TLE_LINE2,SEMIMAJOR_AXIS,PERIOD,APOGEE,PERIGEE,DECAYED
53869.0,STARLINK-4810,PAYLOAD,2023-01-15 12:00:00,15.41651302,0.0001027,53.2168,34.2427,77.8131,9.5293,0.0025484,0.00110194,0.0,0 STARLINK-4810,1 53869U 22114BD  23015.50001157  .00110194  00000-0  25484-2 0  9992,2 53869  53.2168  34.2427 0001027  77.8131   9.5293 15.41651302 19205,6819.371999999999,93.406,441.9380000000001,440.537,0.0
53869.0,STARLINK-4810,PAYLOAD,2023-01-15 22:00:01,15.40630989,0.0001286,53.2144,32.2812,97.4947,142.9718,-0.029297,-0.01109675,0.0,0 STARLINK-4810,1 53869U 22114BD  23015.91668981 -.01109675  00000-0 -29297-1 0  9991,2 53869  53.2144  32.2812 0001286  97.4947 142.9718 15.40630989 19262,6822.383000000001,93.468,445.125,443.371,0.0
53869.0,STARLINK-4810,PAYLOAD,2023-01-16 14:00:01,15.39047,0.0001124,53.2142,29.1449,83.2044,254.8412,-0.032923,-0.01176673,0.0,0 STARLINK-4810,1 53869U 22114BD  23016.58334491 -.01176673  00000-0 -32923-1 0  9993,2 53869  53.2142  29.1449 0001124  83.2044 254.8412 15.39047000 19362,6827.063,93.564,449.696,448.161,0.0
53869.0,STARLINK-4810,PAYLOAD,2023-01-16 22:00:00,15.38188842,0.00011,53.2144,27.5768,93.3852,292.0407,-0.031658,-0.01106308,0.0,0 STARLINK-4810,1 53869U 22114BD  23016.91667824 -.01106308  00000-0 -31658-1 0  9991,2 53869  53.2144  27.5768 0001100  93.3852 292.0407 15.38188842  1305,6829.602,93.617,452.218,450.716,0.0
53869.0,STARLINK-4810,PAYLOAD,2023-01-17 14:00:01,15.36607094,0.0001286,53.2145,24.4519,76.6454,40.5559,-0.035782,-0.01180344,0.0,0 STARLINK-4810,1 53869U 22114BD  23017.58334491 -.01180344  00000-0 -35782-1 0  9990,2 53869  53.2145  24.4519 0001286  76.6454  40.5559 15.36607094  1300,6834.2880000000005,93.713,457.032,455.274,0.0
53869.0,STARLINK-4810,PAYLOAD,2023-01-17 16:00:00,15.36400481,0.0001264999999999,53.2147,24.061,87.7676,130.6384,-0.036113,-0.0118303,0.0,0 STARLINK-4810,1 53869U 22114BD  23017.66667824 -.01183030  00000-0 -36113-1 0  9992,2 53869  53.2147  24.0610 0001265  87.7676 130.6384 15.36400481 19538,6834.901,93.726,457.63,455.901,0.0
53869.0,STARLINK-4810,PAYLOAD,2023-01-17 22:00:00,15.35753436,0.0001283,53.2147,22.8897,90.3654,71.2806,-0.034523,-0.01113849,0.0,0 STARLINK-4810,1 53869U 22114BD  23017.91667824 -.01113849  00000-0 -34523-1 0  9994,2 53869  53.2147  22.8897 0001283  90.3654  71.2806 15.35753436  1302,6836.82,93.765,459.5630000000001,457.8080000000001,0.0
53869.0,STARLINK-4810,PAYLOAD,2023-01-18 12:00:00,15.34342573,0.0001309,53.215,20.1656,75.1199,71.9179,-0.036795,-0.01132756,0.0,0 STARLINK-4810,1 53869U 22114BD  23018.50001157 -.01132756  00000-0 -36795-1 0  9992,2 53869  53.2150  20.1656 0001309  75.1199  71.9179 15.34342573 19667,6841.011,93.851,463.771,461.98,0.0
53869.0,STARLINK-4810,PAYLOAD,2023-01-18 14:00:01,15.3417364,0.0001365,53.2148,19.7762,86.8271,160.7275,-0.039135,-0.01192401,0.0,0 STARLINK-4810,1 53869U 22114BD  23018.58334491 -.01192401  00000-0 -39135-1 0  9994,2 53869  53.2148  19.7762 0001365  86.8271 160.7275 15.34173640  1301,6841.513000000001,93.862,464.312,462.444,0.0
53869.0,STARLINK-4810,PAYLOAD,2023-01-18 22:00:00,15.33312241,0.0001167,53.2151,18.2198,90.6452,198.4216,-0.037214,-0.01110621,0.0,0 STARLINK-4810,1 53869U 22114BD  23018.91667824 -.01110621  00000-0 -37214-1 0  9990,2 53869  53.2151  18.2198 0001167  90.6452 198.4216 15.33312241  1300,6844.075,93.914,466.739,465.141,0.0
53869.0,STARLINK-4810,PAYLOAD,2023-01-19 06:00:00,15.32504228,0.0001177,53.2152,16.6688,78.7007,250.8866,-0.039184,-0.01137315,0.0,0 STARLINK-4810,1 53869U 22114BD  23019.25001157 -.01137315  00000-0 -39184-1 0  9996,2 53869  53.2152  16.6688 0001177  78.7007 250.8866 15.32504228 19772,6846.481,93.964,469.152,467.54,0.0
53869.0,STARLINK-4810,PAYLOAD,2023-01-19 14:00:01,15.31729771,0.0001105999999999,53.2152,15.1176,69.2698,299.8421,-0.042236,-0.01190942,0.0,0 STARLINK-4810,1 53869U 22114BD  23019.58334491 -.01190942  00000-0 -42236-1 0  9999,2 53869  53.2152  15.1176 0001106  69.2698 299.8421 15.31729771  1302,6848.7880000000005,94.011,471.411,469.896,0.0
53869.0,STARLINK-4810,PAYLOAD,2023-01-20 04:00:00,15.30284083,0.0001176,53.2155,12.4078,81.2053,264.7613,-0.0431649999999999,-0.01165705,0.0,0 STARLINK-4810,1 53869U 22114BD  23020.16667824 -.01165705  00000-0 -43165-1 0  9995,2 53869  53.2155  12.4078 0001176  81.2053 264.7613 15.30284083 19913,6853.101,94.1,475.772,474.16,0.0
53869.0,STARLINK-4810,PAYLOAD,2023-01-20 16:00:00,15.29061415,0.0001249,53.2155,10.0897,88.5808,132.2943,-0.044485,-0.01157388,0.0,0 STARLINK-4810,1 53869U 22114BD  23020.66667824 -.01157388  00000-0 -44485-1 0  9994,2 53869  53.2155  10.0897 0001249  88.5808 132.2943 15.29061415  1304,6856.754,94.175,479.475,477.762,0.0
53869.0,STARLINK-4810,PAYLOAD,2023-01-21 00:00:00,15.28259914,0.0001312,53.2157,8.5465,101.3562,154.8955,-0.045822,-0.01178305,0.0,0 STARLINK-4810,1 53869U 22114BD  23021.00001157 -.01178305  00000-0 -45822-1 0  9992,2 53869  53.2157   8.5465 0001312 101.3562 154.8955 15.28259914 20048,6859.151,94.225,481.916,480.116,0.0
53869.0,STARLINK-4810,PAYLOAD,2023-01-22 08:00:01,15.24954336,0.0001165,53.2157,2.3966,78.7608,309.2663,-0.047005,-0.01085224,0.0,0 STARLINK-4810,1 53869U 22114BD  23022.33334491 -.01085224  00000-0 -47005-1 0  9991,2 53869  53.2157   2.3966 0001165  78.7608 309.2663 15.24954336 20251,6869.06,94.429,491.725,490.124,0.0
53869.0,STARLINK-4810,PAYLOAD,2023-01-22 22:00:00,15.23564872,0.0001164,53.2158,359.7129,95.6002,255.1404,-0.051451,-0.01149704,0.0,0 STARLINK-4810,1 53869U 22114BD  23022.91667824 -.01149704  00000-0 -51451-1 0  9998,2 53869  53.2158 359.7129 0001164  95.6002 255.1404 15.23564872 20339,6873.235,94.515,495.9,494.3,0.0
53869.0,STARLINK-4810,PAYLOAD,2023-01-23 14:00:01,15.21951648,0.0001141,53.2156,356.6561,78.3967,328.9347,-0.0560429999999999,-0.01190126,0.0,0 STARLINK-4810,1 53869U 22114BD  23023.58334491 -.01190126  00000-0 -56043-1 0  9999,2 53869  53.2156 356.6561 0001141  78.3967 328.9347 15.21951648 20442,6878.090999999999,94.615,500.741,499.172,0.0
53869.0,STARLINK-4810,PAYLOAD,2023-01-23 22:00:00,15.209323,0.0002028,53.2158,355.1291,91.7243,342.6249,-0.048755,-0.01005339,0.0,0 STARLINK-4810,1 53869U 22114BD  23023.91667824 -.01005339  00000-0 -48755-1 0  9997,2 53869  53.2158 355.1291 0002028  91.7243 342.6249 15.20932300 20491,6881.164000000001,94.679,504.425,501.634,0.0
53869.0,STARLINK-4810,PAYLOAD,2023-01-24 14:00:01,15.19485201,0.0002004,53.2156,352.0842,85.8897,38.9998,-0.0581179999999999,-0.01151199,0.0,0 STARLINK-4810,1 53869U 22114BD  23024.58334491 -.01151199  00000-0 -58118-1 0  9992,2 53869  53.2156 352.0842 0002004  85.8897  38.9998 15.19485201 20598,6885.531999999999,94.769,508.777,506.018,0.0
53869.0,STARLINK-4810,PAYLOAD,2023-01-25 14:00:01,15.17058084,0.0001318,53.2155,347.5292,93.7931,99.8442,-0.063563,-0.01171565,0.0,0 STARLINK-4810,1 53869U 22114BD  23025.58334491 -.01171565  00000-0 -63563-1 0  9992,2 53869  53.2155 347.5292 0001318  93.7931  99.8442 15.17058084  1300,6892.874,94.921,515.648,513.831,0.0
53869.0,STARLINK-4810,PAYLOAD,2023-01-25 16:00:01,15.16821476,0.0001255,53.2156,347.15,102.1925,186.8512,-0.060633,-0.01114558,0.0,0 STARLINK-4810,1 53869U 22114BD  23025.66668981 -.01114558  00000-0 -60633-1 0  9999,2 53869  53.2156 347.1500 0001255 102.1925 186.8512 15.16821476 20754,6893.590999999999,94.935,516.321,514.591,0.0
53869.0,STARLINK-4810,PAYLOAD,2023-01-25 22:00:00,15.16252595,0.0001452,53.2156,346.0143,102.3569,112.2338,-0.064932,-0.01169595,0.0,0 STARLINK-4810,1 53869U 22114BD  23025.91667824 -.01169595  00000-0 -64932-1 0  9999,2 53869  53.2156 346.0143 0001452 102.3569 112.2338 15.16252595  1309,6895.315,94.971,518.182,516.179,0.0
53869.0,STARLINK-4810,PAYLOAD,2023-01-26 10:00:00,15.15033313,0.0001220999999999,53.2153,343.7474,81.6095,342.5873,-0.067457,-0.01173104,0.0,0 STARLINK-4810,1 53869U 22114BD  23026.41667824 -.01173104  00000-0 -67457-1 0  9991,2 53869  53.2153 343.7474 0001221  81.6095 342.5873 15.15033313 20873,6899.014,95.047,521.722,520.0369999999999,0.0
53869.0,STARLINK-4810,PAYLOAD,2023-01-26 14:00:01,15.14612259,0.0001320999999999,53.2156,342.9912,96.526,157.0631,-0.0676929999999999,-0.0116397999999999,0.0,0 STARLINK-4810,1 53869U 22114BD  23026.58334491 -.01163980  00000-0 -67693-1 0  9993,2 53869  53.2156 342.9912 0001321  96.5260 157.0631 15.14612259  1303,6900.293000000001,95.074,523.069,521.246,0.0
53869.0,STARLINK-4810,PAYLOAD,2023-01-27 14:00:01,15.12165501,0.000125,53.2157,338.4702,96.2934,208.4469,-0.071899,-0.01154561,0.0,0 STARLINK-4810,1 53869U 22114BD  23027.58334491 -.01154561  00000-0 -71899-1 0  9992,2 53869  53.2157 338.4702 0001250  96.2934 208.4469 15.12165501  1308,6907.734,95.228,530.4630000000001,528.736,0.0
53869.0,STARLINK-4810,PAYLOAD,2023-01-27 16:00:00,15.11935004,0.0001165,53.2157,338.0939,93.2967,305.3173,-0.069085,-0.01106132,0.0,0 STARLINK-4810,1 53869U 22114BD  23027.66667824 -.01106132  00000-0 -69085-1 0  9995,2 53869  53.2157 338.0939 0001165  93.2967 305.3173 15.11935004 21060,6908.436,95.242,531.106,529.497,0.0
53869.0,STARLINK-4810,PAYLOAD,2023-01-27 22:00:00,15.11369519,0.0001294,53.2158,336.9667,101.5847,218.2397,-0.074705,-0.01171723,0.0,0 STARLINK-4810,1 53869U 22114BD  23027.91667824 -.01171723  00000-0 -74705-1 0  9996,2 53869  53.2158 336.9667 0001294 101.5847 218.2397 15.11369519  1306,6910.159000000001,95.278,532.919,531.13,0.0
53869.0,STARLINK-4810,PAYLOAD,2023-01-28 08:00:01,15.10326921,0.0001268,53.2157,335.0919,78.766,348.5567,-0.073803,-0.01128062,0.0,0 STARLINK-4810,1 53869U 22114BD  23028.33334491 -.01128062  00000-0 -73803-1 0  9990,2 53869  53.2157 335.0919 0001268  78.7660 348.5567 15.10326921 21165,6913.339,95.344,536.081,534.328,0.0
